OBJECT_NAME,OBJECT_ID,EPOCH,MEAN_MOTION,ECCENTRICITY,INCLINATION,RA_OF_ASC_NODE,ARG_OF_PERICENTER,MEAN_ANOMALY,EPHEMERIS_TYPE,CLASSIFICATION_TYPE,NORAD_CAT_ID,ELEMENT_SET_NO,REV_AT_EPOCH,BSTAR,MEAN_MOTION_DOT,MEAN_MOTION_DDOT
STARLINK-30291,2023-141S,2026-07-19T12:19:32.490336,15.31697280,.00013322,53.1604,30.9068,84.9482,275.1671,0,U,57856,999,16052,.2834651E-4,.514E-5,0
STARLINK-30424,2023-141T,2026-07-18T20:30:12.609504,15.31701020,.00011518,53.1613,8.6442,99.8374,260.2758,0,U,57857,999,16077,.8742801E-5,-.94E-6,0
STARLINK-30290,2023-141U,2026-07-18T20:39:37.469376,15.30200954,.00012696,53.1612,34.6511,82.7243,277.3902,0,U,57858,999,16041,.9047176E-5,-.91E-6,0
STARLINK-30414,2023-141V,2026-07-18T20:35:03.577056,15.30190202,.00013902,53.1618,34.6305,84.9453,275.1707,0,U,57859,999,16041,.3881496E-5,-.244E-5,0
STARLINK-30272,2023-141W,2026-07-19T06:10:24.132864,15.31707603,.00012228,53.1606,32.1477,93.3359,266.7783,0,U,57860,999,16048,.37024729E-4,.784E-5,0
STARLINK-30432,2023-144A,2026-07-19T05:03:51.027264,15.27575017,.00012799,42.9997,262.2985,274.8085,85.2621,0,U,57864,999,15771,.16792358E-4,.2E-5,0
STARLINK-30427,2023-144B,2026-07-19T11:26:01.498272,15.27576549,.00012365,43.0013,260.8442,276.7941,83.2770,0,U,57865,999,15775,.44405541E-4,.96E-5,0
STARLINK-30393,2023-144C,2026-07-19T12:43:31.360512,15.27580924,.00013772,43.0007,260.3877,273.3923,86.6771,0,U,57866,999,15776,.38911104E-4,.809E-5,0
STARLINK-30439,2023-144D,2026-07-19T05:14:57.095232,15.27581871,.00011636,42.9991,262.3510,258.6544,101.4177,0,U,57867,999,15776,.30867305E-3,.8242E-4,0
STARLINK-30442,2023-144E,2026-07-19T05:20:29.554656,15.27577360,.00011059,43.0006,262.3366,276.1344,83.9382,0,U,57868,999,15771,.15591049E-4,.167E-5,0
STARLINK-30441,2023-144F,2026-07-19T11:14:54.710592,15.27576018,.0001325,43.0014,260.7465,274.8091,85.2609,0,U,57869,999,15775,.13922963E-4,.121E-5,0
STARLINK-30460,2023-144G,2026-07-19T11:40:49.718784,15.27574760,.00013003,43.0027,260.9226,273.8128,86.2575,0,U,57870,999,15780,.15244739E-4,.157E-5,0
STARLINK-30444,2023-144H,2026-07-19T11:51:55.575072,15.27586508,.00018456,43.0022,260.9798,257.5972,102.4673,0,U,57871,999,15751,.41759864E-3,.11249E-3,0
STARLINK-30446,2023-144J,2026-07-19T10:42:36.714528,15.27574925,.0001549,43.0034,246.9875,262.8416,97.2259,0,U,57872,999,15768,-.2019921E-5,-.318E-5,0
STARLINK-30445,2023-144K,2026-07-19T13:20:31.596000,15.27603072,.00018632,43.0036,260.5885,272.3524,87.7114,0,U,57873,999,15776,-.14196434E-3,-.417E-4,0
STARLINK-30447,2023-144L,2026-07-19T09:10:14.510496,15.27571578,.00014104,43.0006,235.7283,270.2626,89.8064,0,U,57874,999,15807,-.4878333E-5,-.396E-5,0
STARLINK-30434,2023-144M,2026-07-19T12:03:01.719072,15.27582507,.00016866,43.0030,261.0389,268.0377,92.0281,0,U,57875,999,15780,.56558007E-4,.1294E-4,0
STARLINK-30429,2023-144N,2026-07-19T13:42:45.742464,15.27577773,.00015123,43.0026,260.6973,255.4565,104.6119,0,U,57876,999,15780,.55056491E-4,.1253E-4,0
STARLINK-30284,2023-144P,2026-07-19T08:16:49.397088,15.27570377,.00015703,43.0009,225.0412,267.5172,92.5500,0,U,57877,999,15819,.55995534E-4,.1279E-4,0
STARLINK-30433,2023-144Q,2026-07-19T12:32:26.922912,15.27567927,.00011964,43.0014,260.3318,274.4513,85.6202,0,U,57878,999,15780,.17959177E-4,.232E-5,0
STARLINK-30358,2023-144R,2026-07-19T12:38:00.558240,15.27566432,.00012013,43.0010,260.3604,264.1832,95.8882,0,U,57879,999,15780,.6446527E-4,.1512E-4,0
STARLINK-30436,2023-144S,2026-07-19T12:47:14.117856,15.27573693,.00014001,43.0014,260.4044,271.5921,88.4770,0,U,57880,999,15780,-.9520303E-5,-.524E-5,0
STARLINK-30339,2023-144U,2026-07-19T04:30:45.274464,15.27576512,.00012742,43.0010,262.9723,249.5968,110.4747,0,U,57882,999,15774,.31013713E-4,.591E-5,0
STARLINK-30282,2023-144V,2026-07-19T12:28:44.137920,15.27576005,.00013629,43.0010,260.3134,268.0075,92.0621,0,U,57883,999,15780,.87364892E-4,.2142E-4,0
STARLINK-30340,2023-144W,2026-07-19T14:13:58.980864,15.27578890,.00012896,43.0003,259.9894,274.5593,85.5112,0,U,57884,999,15781,.51863422E-4,.1165E-4,0
STARLINK-30279,2023-144X,2026-07-19T12:34:16.936896,15.27569586,.00013326,43.0026,260.3374,272.3973,87.6726,0,U,57885,999,15774,.56114156E-4,.1282E-4,0
YAOGAN-39 02A,2023-145A,2026-07-19T13:57:55.376352,15.23125152,.00030389,35.0042,356.7356,256.1654,103.8723,0,U,57886,999,15811,.21320054E-3,.5122E-4,0
YAOGAN-39 02B,2023-145D,2026-07-19T14:06:24.295680,15.16494018,.00085847,34.9920,22.1501,27.7741,332.3429,0,U,57889,999,15781,.15004918E-3,.2959E-4,0
YAOGAN-39 02C,2023-145E,2026-07-08T04:51:25.773696,15.18020738,.000704,34.9938,93.1935,250.0204,109.9751,0,U,57890,999,15605,.1823E-3,.3765E-4,0
STARLINK-30465,2023-146A,2026-07-19T14:45:42.875712,15.27573775,.00011646,43.0013,289.0692,277.5840,82.4879,0,U,57891,999,15723,.13512456E-4,.11E-5,0
