STARLINK-30291          
1 57856U 23141S   26200.51357049  .00000514  00000+0  28347-4 0  9993
2 57856  53.1604  30.9068 0001332  84.9482 275.1671 15.31697280160527
STARLINK-30424          
1 57857U 23141T   26199.85431261 -.00000094  00000+0  87428-5 0  9997
2 57857  53.1613   8.6442 0001151  99.8374 260.2758 15.31701020160776
STARLINK-30290          
1 57858U 23141U   26199.86085034 -.00000091  00000+0  90472-5 0  9992
2 57858  53.1612  34.6511 0001269  82.7243 277.3902 15.30200954160418
STARLINK-30414          
1 57859U 23141V   26199.85768029 -.00000244  00000+0  38815-5 0  9997
2 57859  53.1618  34.6305 0001390  84.9453 275.1707 15.30190202160411
STARLINK-30272          
1 57860U 23141W   26200.25722376  .00000784  00000+0  37025-4 0  9990
2 57860  53.1606  32.1477 0001222  93.3359 266.7783 15.31707603160483
STARLINK-30432          
1 57864U 23144A   26200.21100726  .00000200  00000+0  16792-4 0  9993
2 57864  42.9997 262.2985 0001279 274.8085  85.2621 15.27575017157714
STARLINK-30427          
1 57865U 23144B   26200.47640623  .00000960  00000+0  44406-4 0  9993
2 57865  43.0013 260.8442 0001236 276.7941  83.2770 15.27576549157751
STARLINK-30393          
1 57866U 23144C   26200.53022408  .00000809  00000+0  38911-4 0  9992
2 57866  43.0007 260.3877 0001377 273.3923  86.6771 15.27580924157762
STARLINK-30439          
1 57867U 23144D   26200.21871638  .00008242  00000+0  30867-3 0  9995
2 57867  42.9991 262.3510 0001163 258.6544 101.4177 15.27581871157765
STARLINK-30442          
1 57868U 23144E   26200.22256429  .00000167  00000+0  15591-4 0  9998
2 57868  43.0006 262.3366 0001105 276.1344  83.9382 15.27577360157718
STARLINK-30441          
1 57869U 23144F   26200.46868878  .00000121  00000+0  13923-4 0  9999
2 57869  43.0014 260.7465 0001325 274.8091  85.2609 15.27576018157758
STARLINK-30460          
1 57870U 23144G   26200.48668656  .00000157  00000+0  15245-4 0  9993
2 57870  43.0027 260.9226 0001300 273.8128  86.2575 15.27574760157805
STARLINK-30444          
1 57871U 23144H   26200.49439323  .00011249  00000+0  41760-3 0  9996
2 57871  43.0022 260.9798 0001845 257.5972 102.4673 15.27586508157516
STARLINK-30446          
1 57872U 23144J   26200.44625827 -.00000318  00000+0 -20199-5 0  9990
2 57872  43.0034 246.9875 0001549 262.8416  97.2259 15.27574925157682
STARLINK-30445          
1 57873U 23144K   26200.55592125 -.00004170  00000+0 -14196-3 0  9995
2 57873  43.0036 260.5885 0001863 272.3524  87.7114 15.27603072157762
STARLINK-30447          
1 57874U 23144L   26200.38211239 -.00000396  00000+0 -48783-5 0  9998
2 57874  43.0006 235.7283 0001410 270.2626  89.8064 15.27571578158071
STARLINK-30434          
1 57875U 23144M   26200.50210323  .00001294  00000+0  56558-4 0  9990
2 57875  43.0030 261.0389 0001686 268.0377  92.0281 15.27582507157802
STARLINK-30429          
1 57876U 23144N   26200.57136276  .00001253  00000+0  55056-4 0  9999
2 57876  43.0026 260.6973 0001512 255.4565 104.6119 15.27577773157808
STARLINK-30284          
1 57877U 23144P   26200.34501617  .00001279  00000+0  55996-4 0  9991
2 57877  43.0009 225.0412 0001570 267.5172  92.5500 15.27570377158190
STARLINK-30433          
1 57878U 23144Q   26200.52253383  .00000232  00000+0  17959-4 0  9991
2 57878  43.0014 260.3318 0001196 274.4513  85.6202 15.27567927157800
STARLINK-30358          
1 57879U 23144R   26200.52639535  .00001512  00000+0  64465-4 0  9995
2 57879  43.0010 260.3604 0001201 264.1832  95.8882 15.27566432157809
STARLINK-30436          
1 57880U 23144S   26200.53280229 -.00000524  00000+0 -95203-5 0  9999
2 57880  43.0014 260.4044 0001400 271.5921  88.4770 15.27573693157807
STARLINK-30339          
1 57882U 23144U   26200.18802401  .00000591  00000+0  31014-4 0  9995
2 57882  43.0010 262.9723 0001274 249.5968 110.4747 15.27576512157747
STARLINK-30282          
1 57883U 23144V   26200.51995530  .00002142  00000+0  87365-4 0  9993
2 57883  43.0010 260.3134 0001362 268.0075  92.0621 15.27576005157809
STARLINK-30340          
1 57884U 23144W   26200.59304376  .00001165  00000+0  51863-4 0  9992
2 57884  43.0003 259.9894 0001289 274.5593  85.5112 15.27578890157811
STARLINK-30279          
1 57885U 23144X   26200.52380714  .00001282  00000+0  56114-4 0  9990
2 57885  43.0026 260.3374 0001332 272.3973  87.6726 15.27569586157741
YAOGAN-39 02A           
1 57886U 23145A   26200.58189093  .00005122  00000+0  21320-3 0  9992
2 57886  35.0042 356.7356 0003038 256.1654 103.8723 15.23125152158115
YAOGAN-39 02B           
1 57889U 23145D   26200.58778120  .00002959  00000+0  15005-3 0  9998
2 57889  34.9920  22.1501 0008584  27.7741 332.3429 15.16494018157817
YAOGAN-39 02C           
1 57890U 23145E   26189.20238164  .00003765  00000+0  18230-3 0  9993
2 57890  34.9938  93.1935 0007040 250.0204 109.9751 15.18020738156055
STARLINK-30465          
1 57891U 23146A   26200.61507958  .00000110  00000+0  13512-4 0  9994
2 57891  43.0013 289.0692 0001164 277.5840  82.4879 15.27573775157239
